ONEWEB-0665             
1 55825U 23029AF  25328.40154196  .00000061  00000+0  13124-3 0  9991
2 55825  87.8984 330.5350 0002134  92.2069 267.9305 13.14502707132501
ONEWEB-0666             
1 55826U 23029AG  25328.41453193  .00000093  00000+0  19800-3 0  9994
2 55826  87.9185 315.3266 0001326  68.1712 291.9563 13.20773532134128
ONEWEB-0667             
1 55827U 23029AH  25328.40822946  .00000064  00000+0  12517-3 0  9996
2 55827  87.9192 315.2595 0002016  90.8994 269.2370 13.20770020134114
ONEWEB-0669             
1 55828U 23029AJ  25328.40348767  .00000110  00000+0  23794-3 0  9992
2 55828  87.9183 315.2964 0001381 102.5067 257.6221 13.20769381134115
ONEWEB-0670             
1 55829U 23029AK  25328.37933322  .00000177  00000+0  44362-3 0  9993
2 55829  87.8985 330.5597 0001992  99.4885 260.6470 13.14501172132525
ONEWEB-0671             
1 55830U 23029AL  25328.43397198 -.00000052  00000+0 -16326-3 0  9990
2 55830  87.9200 345.7230 0002008  95.3335 264.8027 13.19724174131891
ONEWEB-0672             
1 55831U 23029AM  25328.47451295  .00000048  00000+0  86081-4 0  9993
2 55831  87.9180 315.2624 0001617  83.7228 276.4089 13.20773748134124
ONEWEB-0673             
1 55832U 23029AN  25328.10712318 -.00004321  00000+0 -10837-1 0  9993
2 55832  87.9211 345.7656 0001904  92.9827 267.1523 13.19689276131856
